OBJECT_NAME,OBJECT_ID,EPOCH,MEAN_MOTION,ECCENTRICITY,INCLINATION,RA_OF_ASC_NODE,ARG_OF_PERICENTER,MEAN_ANOMALY,EPHEMERIS_TYPE,CLASSIFICATION_TYPE,NORAD_CAT_ID,ELEMENT_SET_NO,REV_AT_EPOCH,BSTAR,MEAN_MOTION_DOT,MEAN_MOTION_DDOT
COSMOS 2532 (RODNIK-S 18),2018-097C,2026-07-22T14:29:27.880224,12.42910297,.00176573,82.5121,200.1403,344.5798,15.4741,0,U,43753,999,34667,-.79107501E-3,-.1E-5,0
MINXSS-2,2018-099A,2026-07-22T04:33:45.505728,15.49204859,.00089208,97.4514,280.5582,138.9719,221.2205,0,U,43758,999,41954,.81218909E-3,.4442E-3,0
SIRION PATHFINDER-2,2018-099B,2026-07-22T09:25:34.406976,15.14818383,.00092127,97.4236,251.6156,167.1431,193.0038,0,U,43759,999,41795,.20801386E-3,.3802E-4,0
AISTECHSAT 2,2018-099L,2026-07-22T13:01:23.387520,15.15765541,.00053683,97.4277,250.8060,157.3769,202.7702,0,U,43768,999,41763,.27467371E-3,.5177E-4,0
FOX-1CLIFF (AO-95),2018-099N,2026-07-22T14:14:22.185312,15.27385023,.00079124,97.4364,263.7217,210.5948,149.4830,0,U,43770,999,41862,.45608186E-3,.12172E-3,0
RANGE-A,2018-099R,2026-07-22T13:09:35.739648,15.13649295,.00092159,97.3951,245.0951,216.0499,144.0112,0,U,43773,999,41784,.22250458E-3,.3939E-4,0
SNUSAT-2,2018-099AA,2026-07-22T02:38:56.838912,15.22313309,.00109068,97.4039,255.9645,164.4213,195.7361,0,U,43782,999,41834,.37706935E-3,.8636E-4,0
SNUGLITE,2018-099AC,2026-07-22T13:59:06.731520,15.27874263,.00042282,97.3847,257.5269,141.2491,218.9053,0,U,43784,999,41872,.45626398E-3,.12353E-3,0
ITASAT,2018-099AE,2026-07-22T03:02:44.191104,15.19439192,.00113209,97.4010,253.9464,223.4985,136.5358,0,U,43786,999,41821,.29324339E-3,.6157E-4,0
EAGLET-I,2018-099AJ,2026-07-22T13:35:24.697248,15.13170583,.0010121,97.4211,252.2987,215.7064,144.3491,0,U,43790,999,41768,.20148638E-3,.3513E-4,0
ESEO,2018-099AL,2026-07-22T13:37:54.799968,15.04342745,.00112769,97.3965,239.4399,204.4471,155.6223,0,U,43792,999,41712,.91528337E-4,.1219E-4,0
THEA,2018-099AQ,2026-07-22T03:06:54.882432,15.36110724,.00085819,97.4420,273.1867,152.5944,207.5754,0,U,43796,999,41805,.59938545E-3,.21059E-3,0
ASTROCAST 0.1,2018-099AS,2026-07-22T11:50:19.219200,15.51855993,.00052684,97.4363,283.1513,109.2484,250.9339,0,U,43798,999,41990,.69338116E-3,.41578E-3,0
JY1SAT (JO-97),2018-099AX,2026-07-22T09:09:02.276640,15.34688119,.00073305,97.4108,266.3595,136.8973,223.2845,0,U,43803,999,41902,.57498257E-3,.19292E-3,0
SUOMI-100,2018-099AY,2026-07-22T03:47:33.929376,15.29147321,.00111216,97.4165,263.4354,149.7145,210.4740,0,U,43804,999,41876,.47348462E-3,.13353E-3,0
CENTAURI-1,2018-099BD,2026-07-22T08:59:14.151840,15.16672534,.00136407,97.4201,254.3412,198.7120,161.3614,0,U,43809,999,41783,.26484893E-3,.513E-4,0
GLOBAL-2,2018-099BG,2026-07-22T13:21:33.883488,15.08856686,.00069192,97.3546,238.5998,46.7648,313.4158,0,U,43812,999,41724,.14565432E-3,.2234E-4,0
SEAHAWK-1,2018-099BQ,2026-07-22T09:59:35.416896,15.23321446,.00086224,97.3940,255.3729,173.2496,186.8859,0,U,43820,999,41789,.41084895E-3,.9697E-4,0
SAUDISAT 5A,2018-102A,2026-07-22T14:07:06.100320,15.28372642,.00096977,97.3047,264.4902,19.6756,340.4856,0,U,43831,999,42108,.19898333E-3,.543E-4,0
SAUDISAT 5B,2018-102C,2026-07-22T14:25:57.852192,15.28613400,.00105053,97.3156,267.6370,20.8969,339.2698,0,U,43833,999,42120,.19342759E-3,.5317E-4,0
ISAT,2018-111D,2026-07-22T13:32:24.805536,15.72281789,.00086342,97.5842,141.6932,127.3402,232.8649,0,U,43879,999,41671,.10777738E-2,.144589E-2,0
UWE-4,2018-111E,2026-07-22T08:00:38.294784,15.48148910,.00074165,97.5824,133.3991,169.0004,191.1409,0,U,43880,999,41621,.6787843E-3,.35708E-3,0
D-STAR ONE (SPARROW),2018-111F,2026-07-21T19:44:15.171648,15.87961081,.00092721,97.6061,147.2939,136.2129,223.9879,0,U,43881,999,41684,.12455259E-2,.335068E-2,.42556826E-4
JILIN-1 09,2019-005B,2026-07-22T13:58:04.061280,15.20784149,.00016237,97.4739,298.2497,17.7596,342.3696,0,U,43943,999,41452,.19459941E-3,.4218E-4,0
JILIN-1 10,2019-005E,2026-07-22T12:54:59.266080,15.26063552,.00092014,97.4790,302.3528,146.3039,213.8786,0,U,43946,999,41470,.23645903E-3,.6024E-4,0
EGYPTSAT-A (MISRSAT-A),2019-008A,2026-07-22T14:50:57.791616,14.72342894,.0001814,98.0174,267.9028,90.7937,269.3479,0,U,44047,999,39845,.1438975E-3,.861E-5,0
EMISAT,2019-018A,2026-07-22T15:07:58.564416,14.43652193,.00196394,98.4627,262.2318,110.1674,250.1632,0,U,44078,999,38517,.11465109E-3,.346E-5,0
JILIN-1 GAOFEN 3A,2019-032C,2026-07-22T14:22:27.431904,15.33310163,.00053713,44.9738,161.9350,157.8713,202.2404,0,U,44312,999,39327,.37716995E-3,.12091E-3,0
WT 1B,2019-032G,2026-07-22T10:45:29.367648,15.27813236,.0008202,44.9721,228.3725,82.9023,277.2792,0,U,44316,999,39247,.34894604E-3,.9378E-4,0
