COSMOS 2532 (RODNIK-S *)
1 43753U 18097C   26203.60379491 -.00000100  00000+0 -79108-3 0  9999
2 43753  82.5121 200.1403 0017657 344.5798  15.4741 12.42910297346674
MINXSS-2                
1 43758U 18099A   26203.19011002  .00044420  00000+0  81219-3 0  9998
2 43758  97.4514 280.5582 0008920 138.9719 221.2205 15.49204859419540
SIRION PATHFINDER-2     
1 43759U 18099B   26203.39275934  .00003802  00000+0  20801-3 0  9996
2 43759  97.4236 251.6156 0009212 167.1431 193.0038 15.14818383417956
AISTECHSAT 2            
1 43768U 18099L   26203.54263180  .00005177  00000+0  27467-3 0  9995
2 43768  97.4277 250.8060 0005368 157.3769 202.7702 15.15765541417638
FOX-1CLIFF (AO-95)      
1 43770U 18099N   26203.59331233  .00012172  00000+0  45608-3 0  9998
2 43770  97.4364 263.7217 0007912 210.5948 149.4830 15.27385023418628
RANGE-A                 
1 43773U 18099R   26203.54833032  .00003939  00000+0  22250-3 0  9999
2 43773  97.3951 245.0951 0009215 216.0499 144.0112 15.13649295417846
SNUSAT-2                
1 43782U 18099AA  26203.11038008  .00008636  00000+0  37707-3 0  9994
2 43782  97.4039 255.9645 0010906 164.4213 195.7361 15.22313309418342
SNUGLITE                
1 43784U 18099AC  26203.58271680  .00012353  00000+0  45626-3 0  9992
2 43784  97.3847 257.5269 0004228 141.2491 218.9053 15.27874263418725
ITASAT                  
1 43786U 18099AE  26203.12690036  .00006157  00000+0  29324-3 0  9996
2 43786  97.4010 253.9464 0011320 223.4985 136.5358 15.19439192418215
EAGLET-I                
1 43790U 18099AJ  26203.56625807  .00003513  00000+0  20149-3 0  9992
2 43790  97.4211 252.2987 0010121 215.7064 144.3491 15.13170583417680
ESEO                    
1 43792U 18099AL  26203.56799537  .00001219  00000+0  91528-4 0  9997
2 43792  97.3965 239.4399 0011276 204.4471 155.6223 15.04342745417128
THEA                    
1 43796U 18099AQ  26203.12980188  .00021059  00000+0  59939-3 0  9990
2 43796  97.4420 273.1867 0008581 152.5944 207.5754 15.36110724418051
ASTROCAST 0.1           
1 43798U 18099AS  26203.49327800  .00041578  00000+0  69338-3 0  9990
2 43798  97.4363 283.1513 0005268 109.2484 250.9339 15.51855993419902
JY1SAT (JO-97)          
1 43803U 18099AX  26203.38127635  .00019292  00000+0  57498-3 0  9991
2 43803  97.4108 266.3595 0007330 136.8973 223.2845 15.34688119419023
SUOMI-100               
1 43804U 18099AY  26203.15803159  .00013353  00000+0  47348-3 0  9994
2 43804  97.4165 263.4354 0011121 149.7145 210.4740 15.29147321418766
CENTAURI-1              
1 43809U 18099BD  26203.37446935  .00005130  00000+0  26485-3 0  9991
2 43809  97.4201 254.3412 0013640 198.7120 161.3614 15.16672534417837
GLOBAL-2                
1 43812U 18099BG  26203.55664217  .00002234  00000+0  14565-3 0  9998
2 43812  97.3546 238.5998 0006919  46.7648 313.4158 15.08856686417244
SEAHAWK-1               
1 43820U 18099BQ  26203.41638214  .00009697  00000+0  41085-3 0  9997
2 43820  97.3940 255.3729 0008622 173.2496 186.8859 15.23321446417899
SAUDISAT 5A             
1 43831U 18102A   26203.58826505  .00005430  00000+0  19898-3 0  9992
2 43831  97.3047 264.4902 0009697  19.6756 340.4856 15.28372642421088
SAUDISAT 5B             
1 43833U 18102C   26203.60136403  .00005317  00000+0  19343-3 0  9997
2 43833  97.3156 267.6370 0010505  20.8969 339.2698 15.28613400421209
ISAT                    
1 43879U 18111D   26203.56417599  .00144589  00000+0  10778-2 0  9997
2 43879  97.5842 141.6932 0008634 127.3402 232.8649 15.72281789416717
UWE-4                   
1 43880U 18111E   26203.33377656  .00035708  00000+0  67878-3 0  9999
2 43880  97.5824 133.3991 0007416 169.0004 191.1409 15.48148910416217
D-STAR ONE (SPARROW)    
1 43881U 18111F   26202.82239782  .00335068  42557-4  12455-2 0  9990
2 43881  97.6061 147.2939 0009272 136.2129 223.9879 15.87961081416843
JILIN-1 09              
1 43943U 19005B   26203.58199145  .00004218  00000+0  19460-3 0  9990
2 43943  97.4739 298.2497 0001623  17.7596 342.3696 15.20784149414522
JILIN-1 10              
1 43946U 19005E   26203.53818595  .00006024  00000+0  23646-3 0  9993
2 43946  97.4790 302.3528 0009201 146.3039 213.8786 15.26063552414701
EGYPTSAT-A (MISRSAT-A)  
1 44047U 19008A   26203.61872444  .00000861  00000+0  14390-3 0  9990
2 44047  98.0174 267.9028 0001814  90.7937 269.3479 14.72342894398456
EMISAT                  
1 44078U 19018A   26203.63053894  .00000346  00000+0  11465-3 0  9995
2 44078  98.4627 262.2318 0019639 110.1674 250.1632 14.43652193385174
JILIN-1 GAOFEN 3A       
1 44312U 19032C   26203.59892861  .00012091  00000+0  37717-3 0  9990
2 44312  44.9738 161.9350 0005371 157.8713 202.2404 15.33310163393278
WT 1B                   
1 44316U 19032G   26203.44825657  .00009378  00000+0  34895-3 0  9995
2 44316  44.9721 228.3725 0008202  82.9023 277.2792 15.27813236392471
